FENGYUN 1C DEB          
1 30003U 99025MC  17345.78729049  .00000192  00000-0  19893-3 0  9992
2 30003  99.2950 272.3449 0145118 324.0793  88.1483 13.83490249550635
